P/2012 K3 (Gibbs),e,13.1878,125.8203,172.2393,3.628807,0.1425799,0.42239571,186.1057,03/14.0/2023,2000,g 15.0,4.0
# From MPC 88326
P/2012 NJ (La Sagra),e,84.5470,315.6037,338.3869,8.466316,0.0400094,0.84670688,156.9805,03/14.0/2023,2000,g 14.5,4.0
# From MPC 81470
P/2012 O1 (McNaught),e,7.4267,91.9227,238.3381,3.541831,0.1478640,0.59419612,217.6613,03/14.0/2023,2000,g 17.5,4.0
# From MPC 80899
P/2012 O2 (McNaught),e,24.4656,120.6823,183.4772,3.626503,0.1427158,0.53188853,200.9949,03/14.0/2023,2000,g 17.0,4.0
# From MPC 82320
P/2012 T2 (PANSTARRS),e,12.5686,73.7169,310.8274,5.726976,0.0719144,0.16241105,259.0208,03/14.0/2023,2000,g 10.0,4.0
# From MPC 80900
P/2012 T3 (PANSTARRS),e,9.5569,114.3620,195.5448,6.151517,0.0645997,0.61656560,256.0717,03/14.0/2023,2000,g 15.0,4.0
# From MPC 82720
P/2012 U2 (PANSTARRS),e,10.7597,185.3255,228.2689,7.131071,0.0517573,0.50012491,195.0852,03/14.0/2023,2000,g 12.5,4.0
# From MPC 84024
P/2012 US27 (Siding Spring),e,39.3699,49.2085,0.8354,5.164168,0.0839854,0.64830867,310.6816,03/14.0/2023,2000,g 13.5,4.0
# From MPC 82721
P/2012 WA34 (Lemmon-PANSTARRS),e,6.0822,93.5544,356.6238,4.679526,0.0973646,0.34367286,348.6307,03/14.0/2023,2000,g 13.5,4.0
# From MPC 82721
P/2013 AL76 (Catalina),e,144.8767,146.0213,27.0402,6.500284,0.0594710,0.68586092,223.3452,03/14.0/2023,2000,g 16.0,4.0
# From MPC 91612
P/2013 G1 (Kowalski),e,5.4575,221.3038,51.5472,6.898491,0.0543967,0.51098349,184.0282,03/14.0/2023,2000,g 11.0,4.0
# From MPC 84025
P/2013 G4 (PANSTARRS),e,5.9160,339.6311,214.6153,4.437748,0.1054290,0.40914632,28.2309,03/14.0/2023,2000,g 15.0,4.0
# From MPC 91613
P/2013 J2 (McNaught),e,15.5077,289.3319,37.8867,6.223413,0.0634835,0.65721636,221.0177,03/14.0/2023,2000,g 13.0,4.0
# From MPC 86229
P/2013 N3 (PANSTARRS),e,2.1734,17.4797,323.9773,7.396147,0.0490000,0.59287591,162.2190,03/14.0/2023,2000,g 13.0,4.0
# From MPC 85834
P/2013 N5 (PANSTARRS),e,23.4613,187.1552,176.9508,6.797032,0.0556192,0.73248561,196.6425,03/14.0/2023,2000,g 17.0,4.0
# From MPC 85834
P/2013 P1 (PANSTARRS),e,18.7215,160.6063,138.2541,8.583612,0.0391921,0.60433915,143.7102,03/14.0/2023,2000,g 12.0,4.0
# From MPEC 2022-V95
P/2013 R3 (Catalina-PANSTARRS),e,0.8650,341.9709,11.3107,3.031736,0.1867098,0.27561928,290.4676,03/14.0/2023,2000,g 14.0,4.0
# From unp
P/2013 R3-A (Catalina-PANSTARRS),e,0.8641,341.9257,11.3897,3.031490,0.1867325,0.27554996,290.5287,03/14.0/2023,2000,g  9.0,4.0
# From MPEC 2015-M77
P/2013 R3-B (Catalina-PANSTARRS),e,0.8654,341.9817,11.3244,3.031710,0.1867121,0.27559526,290.4622,03/14.0/2023,2000,g  9.0,4.0
# From MPC 85835
P/2013 T1 (PANSTARRS),e,24.3025,10.0801,346.1765,5.856448,0.0695429,0.62426450,243.6870,03/14.0/2023,2000,g 16.5,4.0
# From MPC 86643
P/2013 T2 (Schwartz),e,9.4567,0.8021,345.5882,3.492041,0.1510376,0.50098890,181.0972,03/14.0/2023,2000,g 16.0,4.0
# From MPC 91613
P/2013 W1 (PANSTARRS),e,4.6970,117.8388,1.2235,3.487222,0.1513508,0.59298308,138.4460,03/14.0/2023,2000,g 17.5,4.0
# From MPC101095
P/2013 YG46 (Spacewatch),e,7.8576,48.8360,242.6067,3.273787,0.1663905,0.45462988,11.0979,03/14.0/2023,2000,g 10.0,4.0
# From MPC 89728
P/2014 A2 (Hill),e,24.5490,106.6345,356.1455,5.926933,0.0683060,0.64580274,235.1154,03/14.0/2023,2000,g 15.0,4.0
# From MPC 92981
P/2014 A3 (PANSTARRS),e,13.7173,229.9780,214.1540,4.607536,0.0996554,0.24650184,356.0656,03/14.0/2023,2000,g 12.0,4.0
# From MPC102095
P/2014 C1 (TOTAS),e,2.6933,167.8197,23.9681,3.031287,0.1867513,0.45148500,266.4547,03/14.0/2023,2000,g 15.5,4.0
# From MPEC 2022-WD2
C/2014 F3 (Sheppard-Trujillo),e,6.5343,326.2938,4.6172,14.54143,0.0177743,0.60728952,11.6216,03/14.0/2023,2000,g  6.0,4.0
# From MPC 98560
P/2014 L2 (NEOWISE),e,5.1981,149.3455,182.7242,6.305760,0.0622441,0.64777462,196.5046,03/14.0/2023,2000,g 12.0,4.0
# From MPC 90769
P/2014 L3 (Hill),e,6.2655,115.4973,178.7089,8.179035,0.0421358,0.77250786,133.9577,03/14.0/2023,2000,g 16.0,4.0
# From MPC 91614
P/2014 M4 (PANSTARRS),e,3.3442,263.1777,148.0570,5.867777,0.0693416,0.59573635,207.7376,03/14.0/2023,2000,g 15.0,4.0
# From MPEC 2022-K19
P/2014 MG4 (Spacewatch-PANSTARRS),e,9.3660,311.7229,299.0211,5.013626,0.0877963,0.25886390,312.2889,03/14.0/2023,2000,g  9.5,4.0
# From MPC 98560
P/2014 O3 (PANSTARRS),e,7.7948,87.6384,204.7932,7.578001,0.0472468,0.38417917,153.6859,03/14.0/2023,2000,g 10.5,4.0
# From MPEC 2023-A50
C/2014 OG392 (PANSTARRS),e,9.0330,145.8061,254.4495,12.25579,0.0229716,0.18642707,10.5353,03/14.0/2023,2000,g  6.0,4.0
# From MPC 91616
P/2014 U4 (PANSTARRS),e,6.4290,11.8864,347.8490,3.509230,0.1499292,0.46478788,113.6987,03/14.0/2023,2000,g 18.0,4.0
# From MPEC 2023-E68
C/2014 UN271 (Bernardinelli-Bernstein),h,01/21.4375/2031,95.4301,189.8979,326.2195,1.001364,10.948066,2000,2.5,3.2
# From MPC 95211
P/2014 V1 (PANSTARRS),e,22.5234,166.1979,177.6635,5.479454,0.0768419,0.53436516,227.9950,03/14.0/2023,2000,g 14.0,4.0
# From MPC 93586
P/2014 W1 (PANSTARRS),e,8.8358,246.2223,152.1169,4.468377,0.1043469,0.38953929,330.7717,03/14.0/2023,2000,g 15.5,4.0
# From MPC105542
P/2014 W4 (PANSTARRS),e,15.2835,33.3898,67.5860,6.587370,0.0582956,0.35356395,153.3015,03/14.0/2023,2000,g 11.0,4.0
# From MPC 94281
P/2014 X1 (Elenin),e,26.0516,61.5706,33.8638,6.204211,0.0637785,0.70974906,190.9207,03/14.0/2023,2000,g 15.0,4.0
# From MPC 92275
P/2015 A3 (PANSTARRS),e,172.5425,277.3439,249.4865,7.815994,0.0451053,0.85031802,132.8990,03/14.0/2023,2000,g 20.0,4.0
# From MPC 99270
P/2015 B1 (PANSTARRS),e,18.0566,352.9121,188.8552,9.488951,0.0337192,0.36640906,92.5025,03/14.0/2023,2000,g  8.5,4.0
# From MPC109141
P/2015 B4 (Lemmon-PANSTARRS),e,1.7640,266.0722,227.2257,8.515143,0.0396658,0.56075582,117.4626,03/14.0/2023,2000,g 11.0,4.0
# From MPC101096
P/2015 C1 (TOTAS-Gibbs),e,13.9228,348.7903,178.0856,6.573235,0.0584838,0.56125142,168.5856,03/14.0/2023,2000,g 12.5,4.0
# From MPC109141
P/2015 D5 (Kowalski),e,20.5376,74.0751,39.6426,8.952232,0.0367965,0.49015876,120.2611,03/14.0/2023,2000,g  9.0,4.0
# From MPC 96866
P/2015 D6 (Lemmon-PANSTARRS),e,20.2082,45.8399,124.9924,7.134629,0.0517186,0.36145884,145.7564,03/14.0/2023,2000,g 10.5,4.0
# From MPEC 2021-P47
P/2015 HG16 (PANSTARRS),e,18.8927,57.2949,47.3661,4.789154,0.0940407,0.35193429,305.0454,03/14.0/2023,2000,g 12.5,4.0
# From MPC 95213
P/2015 K5 (PANSTARRS),e,39.9421,134.2256,106.3015,6.726744,0.0564933,0.55175973,160.6807,03/14.0/2023,2000,g 13.5,4.0
# From MPC107684
P/2015 M2 (PANSTARRS),e,3.9691,86.5821,226.0266,7.244931,0.0505420,0.17954796,138.4337,03/14.0/2023,2000,g  8.5,4.0
# From MPEC 2021-P47
C/2015 O1 (PANSTARRS),h,02/20.1968/2018,127.1645,299.8205,89.5141,1.001336,3.719500,2000,6.5,4.0
# From MPC 99819
P/2015 P4 (PANSTARRS),e,8.7180,104.6671,280.6932,6.046681,0.0662870,0.58576040,172.7320,03/14.0/2023,2000,g 14.0,4.0
# From MPEC 2022-K19
P/2015 PD229 (Cameron-ISON),e,2.0245,342.6659,352.7123,7.194460,0.0510748,0.32734714,141.2398,03/14.0/2023,2000,g 11.5,2.0
# From MPC 96867
P/2015 Q2 (Pimentel),e,146.5529,228.5425,244.6574,7.353433,0.0494275,0.75074451,135.6331,03/14.0/2023,2000,g 15.5,4.0
# From MPC 98562
P/2015 R1 (PANSTARRS),e,22.7000,48.3200,300.5940,5.880801,0.0691113,0.63419251,194.3917,03/14.0/2023,2000,g 14.0,4.0
# From MPC 95734
P/2015 R2 (PANSTARRS),e,15.4843,168.5951,149.8619,4.485063,0.1037651,0.45269517,293.3283,03/14.0/2023,2000,g 14.5,4.0
# From MPC 96280
P/2015 T3 (PANSTARRS),e,13.0937,120.5019,178.6330,4.326181,0.1095335,0.50818108,359.9227,12/21.0/2014,2000,g 14.0,4.0
# From MPC102953
P/2015 TO19 (Lemmon-PANSTARRS),e,6.5014,321.6225,89.2086,4.551339,0.1015068,0.35945511,260.0056,03/14.0/2023,2000,g 14.0,4.0
# From MPC110080
P/2015 TP200 (LINEAR),e,8.7801,7.0147,82.4388,7.264051,0.0503426,0.53640216,117.1334,03/14.0/2023,2000,g 11.0,4.0
# From MPC101098
P/2015 W2 (Catalina),e,11.6111,294.1286,117.5795,7.290715,0.0500667,0.63537258,136.0367,03/14.0/2023,2000,g 13.0,4.0
# From MPEC 2022-OB6
C/2015 XY1 (Lemmon),e,148.8518,281.5639,196.1381,15134,0.0000005,0.99947625,0.0000,04/25.3436/2018,2000,g  5.5,4.0
# From MPEC 2022-OB6
P/2015 X3 (PANSTARRS),e,24.4065,77.2671,306.7797,5.002733,0.0880832,0.44009968,243.9285,03/14.0/2023,2000,g 15.0,4.0
# From MPC115881
P/2015 X6 (PANSTARRS),e,4.5651,106.9311,329.7874,2.752107,0.2158768,0.17325974,189.4725,03/14.0/2023,2000,g 16.0,4.0
# From MPC100282
P/2016 A2 (Christensen),e,26.4042,291.6182,141.2867,4.753557,0.0950990,0.27097383,269.2648,03/14.0/2023,2000,g 11.5,4.0
# From MPEC 2022-OB6
P/2016 A3 (PANSTARRS),e,8.5113,187.2164,340.8966,7.878420,0.0445703,0.38605357,95.7520,03/14.0/2023,2000,g 10.0,4.0
# From MPC102098
P/2016 A7 (PANSTARRS),e,16.6038,221.4975,352.5098,5.035389,0.0872277,0.56453376,225.0987,03/14.0/2023,2000,g 16.0,4.0
# From MPC109143
P/2016 BA14 (PANSTARRS),e,18.8967,180.5135,351.9716,3.026852,0.1871618,0.66434582,118.8604,03/14.0/2023,2000,g 21.0,4.0
# From MPEC 2021-P47
P/2016 G1 (PANSTARRS),e,10.9711,204.0171,111.1510,2.582996,0.2374206,0.21062570,171.4897,03/14.0/2023,2000,g 14.0,4.0
# From MPEC 2017-D91
P/2016 J1-A (PANSTARRS),e,14.3295,199.8074,47.1265,3.173310,0.1743554,0.22771396,67.2765,03/14.0/2023,2000,g 16.5,4.0
# From MPEC 2017-A77
P/2016 J1-B (PANSTARRS),e,14.3323,199.8122,47.0181,3.172947,0.1743853,0.22756441,67.4256,03/14.0/2023,2000,g 17.0,4.0
# From MPEC 2022-ED3
C/2016 M1 (PANSTARRS),e,90.8561,92.2658,209.9337,35725,0.0000001,0.99993802,0.0000,08/10.4622/2018,2000,g  5.0,4.0
# From MPEC 2021-P47
C/2016 N6 (PANSTARRS),e,105.8646,298.9021,162.5784,958.4226,0.0000332,0.99722475,0.0000,07/17.3978/2018,2000,g  7.0,4.0
# From MPC102099
P/2016 P1 (PANSTARRS),e,24.3982,319.4879,270.5904,3.200560,0.1721334,0.28927594,110.2535,03/14.0/2023,2000,g 15.0,4.0
# From MPEC 2023-D72
C/2016 Q2 (PANSTARRS),h,05/12.3902/2021,109.3797,322.3132,84.5574,1.003032,7.081834,2000,6.0,4.0
# From MPEC 2021-N06
C/2016 R2 (PANSTARRS),e,58.3399,80.5095,33.0924,479.5139,0.0000939,0.99458632,0.0000,05/09.3235/2018,2000,g  7.0,4.0
# From MPEC 2022-K19
P/2016 R4 (Gibbs),e,10.8767,168.2617,174.1375,5.332985,0.0800292,0.47610375,193.9704,03/14.0/2023,2000,g 12.5,4.0
